[{"OBJECT_NAME":"STARLINK-1871","OBJECT_ID":"2020-088AM","EPOCH":"2026-03-09T21:52:37.049088","MEAN_MOTION":15.30175078,"ECCENTRICITY":0.00012586,"INCLINATION":53.1581,"RA_OF_ASC_NODE":295.3388,"ARG_OF_PERICENTER":90.0554,"MEAN_ANOMALY":270.0591,"EPHEMERIS_TYPE":0,"CLASSIFICATION_TYPE":"U","NORAD_CAT_ID":47157,"ELEMENT_SET_NO":999,"REV_AT_EPOCH":29195,"BSTAR":0.00029095563,"MEAN_MOTION_DOT":8.261e-5,"MEAN_MOTION_DDOT":0},{"OBJECT_NAME":"COSMOS 1953","OBJECT_ID":"1988-050A","EPOCH":"2026-03-09T18:09:26.993952","MEAN_MOTION":15.28528086,"ECCENTRICITY":0.00124769,"INCLINATION":82.5105,"RA_OF_ASC_NODE":158.18,"ARG_OF_PERICENTER":122.2454,"MEAN_ANOMALY":237.9996,"EPHEMERIS_TYPE":0,"CLASSIFICATION_TYPE":"U","NORAD_CAT_ID":19210,"ELEMENT_SET_NO":999,"REV_AT_EPOCH":3779,"BSTAR":0.00029210954,"MEAN_MOTION_DOT":8.158e-5,"MEAN_MOTION_DDOT":0}]
